{
    "links": {
        "self": "http://www.neowsapp.com/rest/v1/neo/3893451?api_key=iIulBulltgU6a56xZRHN4H3l9WmuAYTsLGpBGhQ2"
    },
    "id": "3893451",
    "neo_reference_id": "3893451",
    "name": "(2019 WY1)",
    "designation": "2019 WY1",
    "nasa_jpl_url": "http://ssd.jpl.nasa.gov/sbdb.cgi?sstr=3893451",
    "absolute_magnitude_h": 24.6,
    "estimated_diameter": {
        "kilometers": {
            "estimated_diameter_min": 0.0319561887,
            "estimated_diameter_max": 0.0714562102
        },
        "meters": {
            "estimated_diameter_min": 31.9561886721,
            "estimated_diameter_max": 71.4562101727
        },
        "miles": {
            "estimated_diameter_min": 0.0198566489,
            "estimated_diameter_max": 0.0444008168
        },
        "feet": {
            "estimated_diameter_min": 104.8431420431,
            "estimated_diameter_max": 234.436392583
        }
    },
    "is_potentially_hazardous_asteroid": false,
    "close_approach_data": [
        {
            "close_approach_date": "2019-11-15",
            "close_approach_date_full": "2019-Nov-15 18:01",
            "epoch_date_close_approach": 1573840860000,
            "relative_velocity": {
                "kilometers_per_second": "9.0428090906",
                "kilometers_per_hour": "32554.112726192",
                "miles_per_hour": "20227.859654783"
            },
            "miss_distance": {
                "astronomical": "0.0668357991",
                "lunar": "25.9991258499",
                "kilometers": "9998493.185107917",
                "miles": "6212775.5749945746"
            },
            "orbiting_body": "Earth"
        }
    ],
    "orbital_data": {
        "orbit_id": "2",
        "orbit_determination_date": "2019-12-02 04:56:20",
        "first_observation_date": "2019-11-24",
        "last_observation_date": "2019-12-02",
        "data_arc_in_days": 8,
        "observations_used": 55,
        "orbit_uncertainty": "8",
        "minimum_orbit_intersection": ".0525162",
        "jupiter_tisserand_invariant": "3.434",
        "epoch_osculation": "2458812.5",
        "eccentricity": ".5408802175745383",
        "semi_major_axis": "2.220426283087736",
        "inclination": "6.890237418712799",
        "ascending_node_longitude": "62.0486417398499",
        "orbital_period": "1208.517562275182",
        "perihelion_distance": "1.019441631983018",
        "perihelion_argument": "329.300208703579",
        "aphelion_distance": "3.421410934192454",
        "perihelion_time": "2458786.767497107504",
        "mean_anomaly": "7.665342507607838",
        "mean_motion": ".2978856172534687",
        "equinox": "J2000",
        "orbit_class": {
            "orbit_class_type": "AMO",
            "orbit_class_description": "Near-Earth asteroid orbits similar to that of 1221 Amor",
            "orbit_class_range": "1.017 AU < q (perihelion) < 1.3 AU"
        }
    },
    "is_sentry_object": false
}